CCSDS_OMM_VERS = 2.0
CREATION_DATE  = 
ORIGINATOR     = 

OBJECT_NAME    = STARLINK-35249
OBJECT_ID      = 2025-224V
CENTER_NAME    = EARTH
REF_FRAME      = TEME
TIME_SYSTEM    = UTC
MEAN_ELEMENT_THEORY = SGP/SGP4

EPOCH          = 2025-10-26T20:00:01.000224
MEAN_MOTION    = 15.63627952
ECCENTRICITY   = .0001064
INCLINATION    = 53.1599
RA_OF_ASC_NODE = 275.6215
ARG_OF_PERICENTER = 86.6104
MEAN_ANOMALY   = 309.9663

EPHEMERIS_TYPE = 0
CLASSIFICATION_TYPE = U
NORAD_CAT_ID   = 65901
ELEMENT_SET_NO = 999
REV_AT_EPOCH   = 434
BSTAR          = -.23615E-1
MEAN_MOTION_DOT = -.1971616E-1
MEAN_MOTION_DDOT = 0

CCSDS_OMM_VERS = 2.0
CREATION_DATE  = 
ORIGINATOR     = 

OBJECT_NAME    = STARLINK-35278
OBJECT_ID      = 2025-224W
CENTER_NAME    = EARTH
REF_FRAME      = TEME
TIME_SYSTEM    = UTC
MEAN_ELEMENT_THEORY = SGP/SGP4

EPOCH          = 2025-10-26T20:00:01.000224
MEAN_MOTION    = 15.63632875
ECCENTRICITY   = .0000956
INCLINATION    = 53.1596
RA_OF_ASC_NODE = 275.6087
ARG_OF_PERICENTER = 98.6813
MEAN_ANOMALY   = 303.6470

EPHEMERIS_TYPE = 0
CLASSIFICATION_TYPE = U
NORAD_CAT_ID   = 65902
ELEMENT_SET_NO = 999
REV_AT_EPOCH   = 436
BSTAR          = -.23717E-1
MEAN_MOTION_DOT = -.197936E-1
MEAN_MOTION_DDOT = 0

CCSDS_OMM_VERS = 2.0
CREATION_DATE  = 
ORIGINATOR     = 

OBJECT_NAME    = STARLINK-35210
OBJECT_ID      = 2025-224X
CENTER_NAME    = EARTH
REF_FRAME      = TEME
TIME_SYSTEM    = UTC
MEAN_ELEMENT_THEORY = SGP/SGP4

EPOCH          = 2025-10-26T20:00:01.000224
MEAN_MOTION    = 15.63629848
ECCENTRICITY   = .0001057
INCLINATION    = 53.1593
RA_OF_ASC_NODE = 275.6131
ARG_OF_PERICENTER = 86.3833
MEAN_ANOMALY   = 314.0277

EPHEMERIS_TYPE = 0
CLASSIFICATION_TYPE = U
NORAD_CAT_ID   = 65903
ELEMENT_SET_NO = 999
REV_AT_EPOCH   = 434
BSTAR          = -.23665E-1
MEAN_MOTION_DOT = -.1975436E-1
MEAN_MOTION_DDOT = 0

CCSDS_OMM_VERS = 2.0
CREATION_DATE  = 
ORIGINATOR     = 

OBJECT_NAME    = STARLINK-35348
OBJECT_ID      = 2025-224Y
CENTER_NAME    = EARTH
REF_FRAME      = TEME
TIME_SYSTEM    = UTC
MEAN_ELEMENT_THEORY = SGP/SGP4

EPOCH          = 2025-10-26T20:00:01.000224
MEAN_MOTION    = 15.63632052
ECCENTRICITY   = .0001103
INCLINATION    = 53.1598
RA_OF_ASC_NODE = 275.6175
ARG_OF_PERICENTER = 90.2648
MEAN_ANOMALY   = 308.2289

EPHEMERIS_TYPE = 0
CLASSIFICATION_TYPE = U
NORAD_CAT_ID   = 65904
ELEMENT_SET_NO = 999
REV_AT_EPOCH   = 431
BSTAR          = -.2371E-1
MEAN_MOTION_DOT = -.1978938E-1
MEAN_MOTION_DDOT = 0

CCSDS_OMM_VERS = 2.0
CREATION_DATE  = 
ORIGINATOR     = 

OBJECT_NAME    = STARLINK-35380
OBJECT_ID      = 2025-224Z
CENTER_NAME    = EARTH
REF_FRAME      = TEME
TIME_SYSTEM    = UTC
MEAN_ELEMENT_THEORY = SGP/SGP4

EPOCH          = 2025-10-26T20:00:01.000224
MEAN_MOTION    = 15.63630892
ECCENTRICITY   = .0001069
INCLINATION    = 53.1592
RA_OF_ASC_NODE = 275.6060
ARG_OF_PERICENTER = 84.2720
MEAN_ANOMALY   = 319.9716

EPHEMERIS_TYPE = 0
CLASSIFICATION_TYPE = U
NORAD_CAT_ID   = 65905
ELEMENT_SET_NO = 999
REV_AT_EPOCH   = 431
BSTAR          = -.23672E-1
MEAN_MOTION_DOT = -.1976057E-1
MEAN_MOTION_DDOT = 0

CCSDS_OMM_VERS = 2.0
CREATION_DATE  = 
ORIGINATOR     = 

OBJECT_NAME    = STARLINK-35385
OBJECT_ID      = 2025-224AA
CENTER_NAME    = EARTH
REF_FRAME      = TEME
TIME_SYSTEM    = UTC
MEAN_ELEMENT_THEORY = SGP/SGP4

EPOCH          = 2025-10-26T20:00:01.000224
MEAN_MOTION    = 15.63632469
ECCENTRICITY   = .0001107
INCLINATION    = 53.1597
RA_OF_ASC_NODE = 275.5974
ARG_OF_PERICENTER = 86.7938
MEAN_ANOMALY   = 321.2864

EPHEMERIS_TYPE = 0
CLASSIFICATION_TYPE = U
NORAD_CAT_ID   = 65906
ELEMENT_SET_NO = 999
REV_AT_EPOCH   = 434
BSTAR          = -.23747E-1
MEAN_MOTION_DOT = -.1981692E-1
MEAN_MOTION_DDOT = 0

CCSDS_OMM_VERS = 2.0
CREATION_DATE  = 
ORIGINATOR     = 

OBJECT_NAME    = STARLINK-35347
OBJECT_ID      = 2025-224AB
CENTER_NAME    = EARTH
REF_FRAME      = TEME
TIME_SYSTEM    = UTC
MEAN_ELEMENT_THEORY = SGP/SGP4

EPOCH          = 2025-10-26T20:00:01.000224
MEAN_MOTION    = 15.63631427
ECCENTRICITY   = .0001154
INCLINATION    = 53.1596
RA_OF_ASC_NODE = 275.5932
ARG_OF_PERICENTER = 89.7707
MEAN_ANOMALY   = 320.2277

EPHEMERIS_TYPE = 0
CLASSIFICATION_TYPE = U
NORAD_CAT_ID   = 65907
ELEMENT_SET_NO = 999
REV_AT_EPOCH   = 434
BSTAR          = -.23747E-1
MEAN_MOTION_DOT = -.1981615E-1
MEAN_MOTION_DDOT = 0

CCSDS_OMM_VERS = 2.0
CREATION_DATE  = 
ORIGINATOR     = 

OBJECT_NAME    = STARLINK-35329
OBJECT_ID      = 2025-224AC
CENTER_NAME    = EARTH
REF_FRAME      = TEME
TIME_SYSTEM    = UTC
MEAN_ELEMENT_THEORY = SGP/SGP4

EPOCH          = 2025-10-26T20:00:01.000224
MEAN_MOTION    = 15.63636673
ECCENTRICITY   = .0001078
INCLINATION    = 53.1593
RA_OF_ASC_NODE = 275.6010
ARG_OF_PERICENTER = 92.1217
MEAN_ANOMALY   = 314.0404

EPHEMERIS_TYPE = 0
CLASSIFICATION_TYPE = U
NORAD_CAT_ID   = 65908
ELEMENT_SET_NO = 999
REV_AT_EPOCH   = 435
BSTAR          = -.23828E-1
MEAN_MOTION_DOT = -.1987906E-1
MEAN_MOTION_DDOT = 0

CCSDS_OMM_VERS = 2.0
CREATION_DATE  = 
ORIGINATOR     = 

OBJECT_NAME    = STARLINK-35387
OBJECT_ID      = 2025-224AD
CENTER_NAME    = EARTH
REF_FRAME      = TEME
TIME_SYSTEM    = UTC
MEAN_ELEMENT_THEORY = SGP/SGP4

EPOCH          = 2025-10-26T20:00:01.000224
MEAN_MOTION    = 15.63635215
ECCENTRICITY   = .0001085
INCLINATION    = 53.1598
RA_OF_ASC_NODE = 275.5888
ARG_OF_PERICENTER = 87.4087
MEAN_ANOMALY   = 324.5046

EPHEMERIS_TYPE = 0
CLASSIFICATION_TYPE = U
NORAD_CAT_ID   = 65909
ELEMENT_SET_NO = 999
REV_AT_EPOCH   = 431
BSTAR          = -.23799E-1
MEAN_MOTION_DOT = -.1985644E-1
MEAN_MOTION_DDOT = 0

CCSDS_OMM_VERS = 2.0
CREATION_DATE  = 
ORIGINATOR     = 

OBJECT_NAME    = STARLINK-35523
OBJECT_ID      = 2025-225A
CENTER_NAME    = EARTH
REF_FRAME      = TEME
TIME_SYSTEM    = UTC
MEAN_ELEMENT_THEORY = SGP/SGP4

EPOCH          = 2025-10-26T17:27:09.378432
MEAN_MOTION    = 15.74245321
ECCENTRICITY   = .0000989
INCLINATION    = 53.1604
RA_OF_ASC_NODE = 71.7922
ARG_OF_PERICENTER = 79.2030
MEAN_ANOMALY   = 280.9101

EPHEMERIS_TYPE = 0
CLASSIFICATION_TYPE = U
NORAD_CAT_ID   = 65910
ELEMENT_SET_NO = 999
REV_AT_EPOCH   = 384
BSTAR          = .12283E-2
MEAN_MOTION_DOT = .18368E-2
MEAN_MOTION_DDOT = 0

CCSDS_OMM_VERS = 2.0
CREATION_DATE  = 
ORIGINATOR     = 

OBJECT_NAME    = STARLINK-35160
OBJECT_ID      = 2025-225B
CENTER_NAME    = EARTH
REF_FRAME      = TEME
TIME_SYSTEM    = UTC
MEAN_ELEMENT_THEORY = SGP/SGP4

EPOCH          = 2025-10-26T17:26:40.438752
MEAN_MOTION    = 15.74226242
ECCENTRICITY   = .0001079
INCLINATION    = 53.1600
RA_OF_ASC_NODE = 71.7906
ARG_OF_PERICENTER = 69.5540
MEAN_ANOMALY   = 290.5595

EPHEMERIS_TYPE = 0
CLASSIFICATION_TYPE = U
NORAD_CAT_ID   = 65911
ELEMENT_SET_NO = 999
REV_AT_EPOCH   = 384
BSTAR          = .11195E-2
MEAN_MOTION_DOT = .166876E-2
MEAN_MOTION_DDOT = 0

CCSDS_OMM_VERS = 2.0
CREATION_DATE  = 
ORIGINATOR     = 

OBJECT_NAME    = STARLINK-35508
OBJECT_ID      = 2025-225C
CENTER_NAME    = EARTH
REF_FRAME      = TEME
TIME_SYSTEM    = UTC
MEAN_ELEMENT_THEORY = SGP/SGP4

EPOCH          = 2025-10-26T17:26:11.086080
MEAN_MOTION    = 15.74226240
ECCENTRICITY   = .000094
INCLINATION    = 53.1607
RA_OF_ASC_NODE = 71.7870
ARG_OF_PERICENTER = 89.0475
MEAN_ANOMALY   = 271.0652

EPHEMERIS_TYPE = 0
CLASSIFICATION_TYPE = U
NORAD_CAT_ID   = 65912
ELEMENT_SET_NO = 999
REV_AT_EPOCH   = 384
BSTAR          = .10499E-2
MEAN_MOTION_DOT = .156268E-2
MEAN_MOTION_DDOT = 0

