STARLINK-35249          
1 65901U 25224V   25299.83334491 -.01971616  00000+0 -23615-1 0  9998
2 65901  53.1599 275.6215 0001064  86.6104 309.9663 15.63627952  4342
STARLINK-35278          
1 65902U 25224W   25299.83334491 -.01979360  00000+0 -23717-1 0  9996
2 65902  53.1596 275.6087 0000956  98.6813 303.6470 15.63632875  4365
STARLINK-35210          
1 65903U 25224X   25299.83334491 -.01975436  00000+0 -23665-1 0  9999
2 65903  53.1593 275.6131 0001057  86.3833 314.0277 15.63629848  4347
STARLINK-35348          
1 65904U 25224Y   25299.83334491 -.01978938  00000+0 -23710-1 0  9991
2 65904  53.1598 275.6175 0001103  90.2648 308.2289 15.63632052  4317
STARLINK-35380          
1 65905U 25224Z   25299.83334491 -.01976057  00000+0 -23672-1 0  9999
2 65905  53.1592 275.6060 0001069  84.2720 319.9716 15.63630892  4314
STARLINK-35385          
1 65906U 25224AA  25299.83334491 -.01981692  00000+0 -23747-1 0  9994
2 65906  53.1597 275.5974 0001107  86.7938 321.2864 15.63632469  4349
STARLINK-35347          
1 65907U 25224AB  25299.83334491 -.01981615  00000+0 -23747-1 0  9990
2 65907  53.1596 275.5932 0001154  89.7707 320.2277 15.63631427  4342
STARLINK-35329          
1 65908U 25224AC  25299.83334491 -.01987906  00000+0 -23828-1 0  9990
2 65908  53.1593 275.6010 0001078  92.1217 314.0404 15.63636673  4359
STARLINK-35387          
1 65909U 25224AD  25299.83334491 -.01985644  00000+0 -23799-1 0  9995
2 65909  53.1598 275.5888 0001085  87.4087 324.5046 15.63635215  4312
STARLINK-35523          
1 65910U 25225A   25299.72719188  .00183680  00000+0  12283-2 0  9990
2 65910  53.1604  71.7922 0000989  79.2030 280.9101 15.74245321  3847
STARLINK-35160          
1 65911U 25225B   25299.72685693  .00166876  00000+0  11195-2 0  9993
2 65911  53.1600  71.7906 0001079  69.5540 290.5595 15.74226242  3840
STARLINK-35508          
1 65912U 25225C   25299.72651720  .00156268  00000+0  10499-2 0  9998
2 65912  53.1607  71.7870 0000940  89.0475 271.0652 15.74226240  3844
